1 39615U 14010D   15197.93371830  .00481865  96093-6  89957-3 0  9993
2 39615 048.5714 025.5581 6808148 129.4997 313.5173 02.98054079 11590
1 39615U 14010D   15198.60368212  .00584659  10407-5  10773-2 0  9996
2 39615 048.5722 025.2940 6803385 129.7399 313.1538 02.98731752 11616
1 39615U 14010D   15198.93804846  .00548455  10655-5  10238-2 0  9995
2 39615 048.5727 025.1617 6800656 129.8590 312.9667 02.99097503 11624
1 39615U 14010D   15199.27205296  .00553878  10796-5  10544-2 0  9998
2 39615 048.5731 025.0295 6798138 129.9750 312.7856 02.99426425 11638
1 39615U 14010D   15199.60564770  .00510579  10834-5  94745-3 0  9990
2 39615 048.5734 024.8973 6795778 130.0965 312.5992 02.99784407 11646
1 39615U 14010D   15199.93885412  .00528970  10764-5  98049-3 0  9992
2 39615 048.5737 024.7648 6793278 130.2145 312.4141 03.00134287 11656
1 39615U 14010D   15200.27167571  .00544621  10592-5  10257-2 0  9995
2 39615 048.5739 024.6323 6790642 130.3337 312.2244 03.00484067 11660
1 39615U 14010D   15200.60409844  .00583383  10320-5  10711-2 0  9996
2 39615 048.5740 024.5003 6788196 130.4536 312.0358 03.00854108 11671
1 39615U 14010D   15200.93611265  .00544657  99575-6  10079-2 0  9992
2 39615 048.5744 024.3676 6785621 130.5723 311.8458 03.01204860 11682
1 39615U 14010D   15201.26774541  .00574040  95009-6  10113-2 0  9992
2 39615 048.5744 024.2355 6783340 130.6922 311.6578 03.01579455 11690
